IRIDIUM 126             
1 42809U 17039G   25280.51684476  .00000158  00000+0  49523-4 0  9991
2 42809  86.3913  99.2828 0002322  91.6369 268.5093 14.34216498433731
IRIDIUM 124             
1 42810U 17039H   25280.75746730  .00000572  00000+0  16390-3 0  9996
2 42810  86.4518  35.8745 0002221  89.7562 270.3893 14.43282372438705
IRIDIUM 128             
1 42811U 17039J   25280.85641343  .00000333  00000+0  11168-3 0  9995
2 42811  86.3956 130.6670 0002099  74.4478 285.6949 14.34216845433812
IRIDIUM 121             
1 42812U 17039K   25280.46610080  .00000153  00000+0  47463-4 0  9995
2 42812  86.3913  99.3300 0002017  86.3311 273.8115 14.34218812433602
IRIDIUM 133             
1 42955U 17061A   25280.53929067  .00000392  00000+0  13288-3 0  9996
2 42955  86.3961 130.9112 0002118  84.1913 275.9524 14.34216871418560
IRIDIUM 100             
1 42956U 17061B   25280.88179205  .00000055  00000+0  12595-4 0  9993
2 42956  86.3954 130.6924 0002294  84.6133 275.5324 14.34217378418618
IRIDIUM 122             
1 42957U 17061C   25280.85007934  .00000172  00000+0  54322-4 0  9994
2 42957  86.3957 130.7053 0002228  84.6847 275.4603 14.34217485418613
IRIDIUM 129             
1 42958U 17061D   25280.87543999  .00000248  00000+0  81630-4 0  9999
2 42958  86.3961 130.7590 0002124  97.7363 262.4074 14.34215628418635
